JILIN-1 GAOFEN 03D11    
1 51835U 22019M   25263.98674877  .00040433  00000+0  80355-3 0  9997
2 51835  97.3921 345.6743 0005491  55.8064 304.3705 15.46846485198027
JILIN-1 GAOFEN 03D15    
1 51839U 22019R   25263.96057436  .00038621  00000+0  82063-3 0  9999
2 51839  97.3895 344.7259 0005082  76.1637 284.0177 15.44897568197988
JILIN-1 GAOFEN 03D10    
1 51840U 22019S   25263.99799469  .00041186  00000+0  81815-3 0  9997
2 51840  97.3902 345.7549 0000165  48.1282 311.9982 15.46870242198048
JILIN-1 GAOFEN 03D12    
1 51841U 22019T   25263.97763874  .00037816  00000+0  80216-3 0  9996
2 51841  97.3880 344.6590 0003160  28.5657 331.5765 15.44961084197986
JILIN-1 GAOFEN 03D18    
1 51844U 22019W   25263.95112494  .00040519  00000+0  80701-3 0  9996
2 51844  97.3872 344.8897 0008614  29.2629 330.9102 15.46758591197907
JILIN-1 GAOFEN 03D13    
1 51846U 22019Y   25263.96430506  .00036615  00000+0  80751-3 0  9993
2 51846  97.3875 344.2240 0005495  68.0051 292.1781 15.43804460197885
STRIX-BETA              
1 51847U 22020A   25263.96708235  .00045570  00000+0  10473-2 0  9996
2 51847  97.5991 343.1731 0007328 143.4449 216.7299 15.42512148196586
GOES 18                 
1 51850U 22021A   25263.69584777  .00000082  00000+0  00000+0 0  9995
2 51850   0.0456  15.3254 0000642 240.0431 217.9633  1.00272600  3891
STARLINK-3542           
1 51852U 22022A   25263.74819207 -.00001000  00000+0 -44740-4 0  9990
2 51852  53.2180  62.0189 0001326  95.6111 264.5033 15.08830211196102
STARLINK-3541           
1 51854U 22022C   25263.74450714  .00000581  00000+0  54581-4 0  9991
2 51854  53.2167  62.0342 0001164  81.1385 278.9739 15.08836271197366
STARLINK-3545           
1 51855U 22022D   25263.72978027 -.00001760  00000+0 -92545-4 0  9996
2 51855  53.2182  62.0271 0001257  89.0163 271.0973 15.08838476197317
STARLINK-3568           
1 51856U 22022E   25263.74178392  .00000475  00000+0  47936-4 0  9990
2 51856  53.2174  62.0570 0001295  94.2471 265.8670 15.08836836197394
STARLINK-3571           
1 51857U 22022F   25263.73075112 -.00000069  00000+0  13776-4 0  9991
2 51857  53.2187  62.1084 0001443  87.3550 272.7608 15.08837381197367
STARLINK-3563           
1 51858U 22022G   25263.73346302  .00002115  00000+0  15095-3 0  9992
2 51858  53.2181  62.0858 0001420  79.0563 281.0588 15.08841093197362
STARLINK-3560           
1 51859U 22022H   25263.68382192 -.00000233  00000+0  34259-5 0  9999
2 51859  53.2183  52.3176 0001254  82.9065 277.2070 15.08840419197493
STARLINK-3559           
1 51860U 22022J   25263.69021965  .00000294  00000+0  36554-4 0  9995
2 51860  53.2182  52.2789 0001367  88.6310 271.4838 15.08842631197456
STARLINK-3562           
1 51861U 22022K   25263.74173839  .00001253  00000+0  96766-4 0  9997
2 51861  53.2176  52.0438 0001406  87.6569 272.4585 15.08845215197370
STARLINK-3508           
1 51862U 22022L   25263.68654369 -.00000375  00000+0 -54826-5 0  9991
2 51862  53.2188  52.2943 0001391  93.2349 266.8802 15.08839163197508
STARLINK-3555           
1 51863U 22022M   25263.73434808  .00006415  00000+0  42035-3 0  9998
2 51863  53.2181  52.0792 0001172  82.0860 278.0265 15.08876419197450
STARLINK-3548           
1 51864U 22022N   25263.73805731  .00000247  00000+0  33612-4 0  9995
2 51864  53.2182  51.9837 0001307  87.7464 272.3678 15.08847872197504
STARLINK-3503           
1 51865U 22022P   25263.72702234  .00000064  00000+0  22118-4 0  9995
2 51865  53.2186  52.1125 0001272  88.7285 271.3853 15.08838989197452
STARLINK-3553           
1 51866U 22022Q   25263.72428378 -.00004235  00000+0 -24807-3 0  9992
2 51866  53.2189  51.9809 0001578 107.8617 252.2548 15.08853271197453
STARLINK-3590           
1 51867U 22022R   25263.72334856 -.00000412  00000+0 -77889-5 0  9993
2 51867  53.2188  52.1317 0001280  91.9724 268.1414 15.08838462197455
STARLINK-3578           
1 51868U 22022S   25263.73070088 -.00000079  00000+0  13145-4 0  9991
2 51868  53.2181  52.0949 0001322  92.6049 267.5094 15.08843214197452
STARLINK-3588           
1 51869U 22022T   25263.71230506  .00000104  00000+0  24607-4 0  9996
2 51869  53.2185  52.1809 0001318  92.2428 267.8715 15.08835312197458
STARLINK-3591           
1 51870U 22022U   25263.65342468  .00000859  00000+0  72075-4 0  9991
2 51870  53.2182  52.4436 0001287  96.8179 263.2959 15.08834006197497
STARLINK-3567           
1 51871U 22022V   25263.70862018  .00000240  00000+0  33160-4 0  9992
2 51871  53.2178  52.1971 0001241  89.9524 270.1610 15.08839900197568
STARLINK-3554           
1 51872U 22022W   25263.71598327  .00000725  00000+0  63616-4 0  9990
2 51872  53.2183  52.1643 0001212  90.4843 269.6288 15.08838841197455
STARLINK-3582           
1 51873U 22022X   25263.69854387 -.00000584  00000+0 -18585-4 0  9999
2 51873  53.2191  52.2523 0001334  90.1231 269.9914 15.08837018197450
STARLINK-3574           
1 51874U 22022Y   25263.70494425 -.00000578  00000+0 -18211-4 0  9994
2 51874  53.2188  52.2144 0001259  94.2218 265.8919 15.08838160197440
STARLINK-3585           
1 51875U 22022Z   25263.68285873  .00002936  00000+0  20242-3 0  9991
2 51875  53.2170  52.2226 0001105  86.9382 273.1737 15.08848723197450
STARLINK-3583           
1 51876U 22022AA  25263.70126727 -.00001206  00000+0 -57679-4 0  9993
2 51876  53.2191  52.2322 0001548  74.5392 285.5771 15.08843933197459
STARLINK-3556           
1 51877U 22022AB  25263.68378324  .00000599  00000+0  55712-4 0  9991
2 51877  53.2189  42.3085 0001248  75.2532 284.8599 15.08834756197581
STARLINK-3575           
1 51878U 22022AC  25263.69390278 -.00000076  00000+0  13297-4 0  9998
2 51878  53.2187  52.2615 0001407  93.3042 266.8112 15.08840384197454
STARLINK-3572           
1 51879U 22022AD  25263.67642317 -.00000280  00000+0  51264-6 0  9996
2 51879  53.2180  42.3385 0001064  85.4983 274.6131 15.08836568197588
STARLINK-3566           
1 51880U 22022AE  25263.69754302  .00000434  00000+0  45372-4 0  9999
2 51880  53.2189  51.9673 0001292  90.2267 269.8873 15.08843785197451
STARLINK-3504           
1 51881U 22022AF  25263.40410289  .00000727  00000+0  63777-4 0  9996
2 51881  53.2187  43.5649 0001315  85.9587 274.1555 15.08837182197597
STARLINK-3570           
1 51882U 22022AG  25263.41608847  .00000707  00000+0  62520-4 0  9990
2 51882  53.2181  43.5171 0001135  89.8261 270.2862 15.08845974197590
STARLINK-3576           
1 51883U 22022AH  25263.68012724  .00000207  00000+0  31067-4 0  9990
2 51883  53.2177  42.5050 0001175  90.7895 269.3232 15.08836796197579
STARLINK-3577           
1 51884U 22022AJ  25263.67274499 -.00000212  00000+0  47835-5 0  9997
2 51884  53.2179  42.3548 0001229  91.3796 268.7337 15.08837414197666
STARLINK-3584           
1 51885U 22022AK  25263.65802097 -.00000173  00000+0  72437-5 0  9999
2 51885  53.2181  42.4206 0001370  90.2367 269.8782 15.08840142197579
STARLINK-3565           
1 51886U 22022AL  25263.66538376 -.00000023  00000+0  16632-4 0  9995
2 51886  53.2188  42.3902 0001379  91.4614 268.6536 15.08839796197584
STARLINK-3551           
1 51887U 22022AM  25263.45563588  .00002846  00000+0  19690-3 0  9996
2 51887  53.2182  43.3290 0001271  73.1380 286.9751 15.08825166197542
STARLINK-3536           
1 51888U 22022AN  25263.39674291  .00000050  00000+0  21256-4 0  9991
2 51888  53.2183  43.5945 0001236  75.3031 284.8098 15.08843182197540
STARLINK-3547           
1 51889U 22022AP  25263.70954038  .00000803  00000+0  68515-4 0  9992
2 51889  53.2184  42.1894 0001218  87.6837 272.4295 15.08839261197589
STARLINK-3549           
1 51891U 22022AR  25263.70586208  .00000404  00000+0  43478-4 0  9993
2 51891  53.2183  42.2054 0001239  83.5354 276.5779 15.08839981197639
STARLINK-3587           
1 51892U 22022AS  25263.71322426  .00000553  00000+0  52849-4 0  9992
2 51892  53.2183  42.1732 0001240  86.3281 273.7853 15.08838344197582
STARLINK-3579           
1 51893U 22022AT  25263.69850942 -.00000481  00000+0 -12152-4 0  9994
2 51893  53.2192  42.2422 0000978  89.3780 270.7325 15.08846047197641
STARLINK-3595           
1 51894U 22022AU  25263.70217821  .00000363  00000+0  40913-4 0  9993
2 51894  53.2184  42.2230 0001294  88.2701 271.8439 15.08845062197647
STARLINK-3594           
1 51895U 22022AV  25263.69482567  .00000857  00000+0  71941-4 0  9996
2 51895  53.2196  42.2599 0001289  95.2015 264.9124 15.08838540197589
STARLINK-3593           
1 51896U 22022AW  25263.38572609  .00000351  00000+0  40176-4 0  9995
2 51896  53.2177  43.8663 0001783  77.8595 282.2597 15.08845735197587
STARLINK-3598           
1 51897U 22022AX  25263.69115059 -.00000205  00000+0  52347-5 0  9995
2 51897  53.2194  42.2782 0001379  98.5004 261.6145 15.08832448197585
STARLINK-3597           
1 51898U 22022AY  25263.68746218  .00000533  00000+0  51556-4 0  9995
2 51898  53.2182  42.2919 0001290  94.1758 265.9382 15.08838670197634
2022-023A               
1 51946U 22023A   25263.96410203  .00007489  00000+0  33015-3 0  9999
2 51946  63.4658 104.8825 0097840 340.9561  18.7902 15.18343876196844
2022-023B               
1 51947U 22023B   25261.26034795  .00001050  00000+0  56545-4 0  9991
2 51947  63.4622 113.4738 0093779 345.3611  14.4788 15.18271589196438
2022-023C               
1 51948U 22023C   25263.96744593  .00007573  00000+0  33396-3 0  9999
2 51948  63.4737 105.3917 0097136 349.1237  10.7774 15.18381508196844
2022-023D               
1 51949U 22023D   25263.98592905  .00007417  00000+0  32041-3 0  9993
2 51949  63.4573 106.7957 0105658 347.1805  12.6624 15.18345899196848
2022-023E               
1 51950U 22023E   25263.93688277  .00000006  00000+0  13202-3 0  9993
2 51950  63.4626 296.9409 0134728 348.5657  11.2323 13.56252107185515
2022-023F               
1 51951U 22023F   25264.00782616  .00007172  00000+0  30907-3 0  9997
2 51951  63.4772 108.3915 0107221 336.5049  23.1184 15.18322567196849
